NORAD_CAT_ID,OBJECT_NAME,OBJECT_TYPE,EPOCH,MEAN_MOTION,ECCENTRICITY,INCLINATION,RA_OF_ASC_NODE,ARG_OF_PERICENTER,MEAN_ANOMALY,BSTAR,MEAN_MOTION_DOT,MEAN_MOTION_DDOT,TLE_LINE0,TLE_LINE1,TLE_LINE2,SEMIMAJOR_AXIS,PERIOD,APOGEE,PERIGEE,DECAYED
53786.0,STARLINK-4631,PAYLOAD,2024-04-24 04:18:04,15.08851048,0.0001262,53.217,96.7713,85.8327,274.2809,8.1251e-05,1.006e-05,0.0,0 STARLINK-4631,1 53786U 22111P   24115.17921818  .00001006  00000-0  81251-4 0  9994,2 53786  53.2170  96.7713 0001262  85.8327 274.2809 15.08851048 90502,6917.847,95.437,540.585,538.839,0.0
53786.0,STARLINK-4631,PAYLOAD,2024-04-25 04:08:52,15.08842674,0.0001212,53.217,92.3138,81.774,278.3389,9.0621e-05,1.155e-05,0.0,0 STARLINK-4631,1 53786U 22111P   24116.17282541  .00001155  00000-0  90621-4 0  9994,2 53786  53.2170  92.3138 0001212  81.7740 278.3389 15.08842674 89842,6917.872,95.437,540.576,538.899,0.0
53786.0,STARLINK-4631,PAYLOAD,2024-04-25 05:44:15,15.08838686,0.0001333,53.2181,92.0135,51.4847,308.6265,0.00011884,1.604e-05,0.0,0 STARLINK-4631,1 53786U 22111P   24116.23906760  .00001604  00000-0  11884-3 0  9999,2 53786  53.2181  92.0135 0001333  51.4847 308.6265 15.08838686 90664,6917.884,95.438,540.672,538.827,0.0
53786.0,STARLINK-4631,PAYLOAD,2024-04-26 07:10:25,15.08848058,0.0001407,53.2177,87.253,84.0105,276.1047,-2.996e-05,-7.65e-06,0.0,0 STARLINK-4631,1 53786U 22111P   24117.29890203 -.00000765  00000-0 -29960-4 0  9994,2 53786  53.2177  87.2530 0001407  84.0105 276.1047 15.08848058 90015,6917.856,95.437,540.694,538.747,0.0
53786.0,STARLINK-4631,PAYLOAD,2024-04-26 15:07:20,15.08845672,0.000133,53.2171,85.7665,91.9937,268.1208,3.1952e-06,-2.37e-06,0.0,0 STARLINK-4631,1 53786U 22111P   24117.63010030 -.00000237  00000-0  31952-5 0  9992,2 53786  53.2171  85.7665 0001330  91.9937 268.1208 15.08845672 90879,6917.863,95.437,540.648,538.808,0.0
53786.0,STARLINK-4631,PAYLOAD,2024-04-27 05:25:48,15.08847906,0.0001371,53.217,83.091,91.0006,269.1144,5.9564e-05,6.6e-06,0.0,0 STARLINK-4631,1 53786U 22111P   24118.22625519  .00000660  00000-0  59564-4 0  9999,2 53786  53.2170  83.0910 0001371  91.0006 269.1144 15.08847906 90967,6917.856,95.437,540.67,538.773,0.0
53786.0,STARLINK-4631,PAYLOAD,2024-04-27 21:19:40,15.08838686,0.0001434,53.2174,80.1169,89.2127,270.9029,-1.9343e-05,-5.96e-06,0.0,0 STARLINK-4631,1 53786U 22111P   24118.88866265 -.00000596  00000-0 -19343-4 0  9997,2 53786  53.2174  80.1169 0001434  89.2127 270.9029 15.08838686 90257,6917.884,95.438,540.741,538.757,0.0
53786.0,STARLINK-4631,PAYLOAD,2024-04-28 14:48:55,15.08837377,0.0001461,53.2178,76.8456,91.7397,268.3763,-2.0195e-05,-6.09e-06,0.0,0 STARLINK-4631,1 53786U 22111P   24119.61730328 -.00000609  00000-0 -20195-4 0  9991,2 53786  53.2178  76.8456 0001461  91.7397 268.3763 15.08837377 91173,6917.888,95.438,540.764,538.743,0.0
53786.0,STARLINK-4631,PAYLOAD,2024-04-29 03:31:59,15.08841097,0.0001521,53.2176,74.4664,91.0282,269.0885,-1.6341e-05,-5.48e-06,0.0,0 STARLINK-4631,1 53786U 22111P   24120.14722078 -.00000548  00000-0 -16341-4 0  9994,2 53786  53.2176  74.4664 0001521  91.0282 269.0885 15.08841097 90445,6917.877,95.437,540.794,538.69,0.0
53786.0,STARLINK-4631,PAYLOAD,2024-04-29 06:42:46,15.08850313,0.0001568,53.2177,73.8715,91.3856,268.7316,-0.00012593,-2.292e-05,0.0,0 STARLINK-4631,1 53786U 22111P   24120.27969924 -.00002292  00000-0 -12593-3 0  9993,2 53786  53.2177  73.8715 0001568  91.3856 268.7316 15.08850313 91275,6917.849,95.437,540.799,538.629,0.0
53786.0,STARLINK-4631,PAYLOAD,2024-04-30 03:22:47,15.08834393,0.0001442,53.2172,70.0061,88.7256,271.3901,3.9119e-05,3.35e-06,0.0,0 STARLINK-4631,1 53786U 22111P   24121.14082446  .00000335  00000-0  39119-4 0  9993,2 53786  53.2172  70.0061 0001442  88.7256 271.3901 15.08834393 90592,6917.898,95.438,540.76,538.765,0.0
53786.0,STARLINK-4631,PAYLOAD,2024-05-01 12:45:52,15.0884,0.0001375,53.2171,63.761,86.1673,273.9476,3.2295e-05,2.26e-06,0.0,0 STARLINK-4631,1 53786U 22111P   24122.53186158  .00000226  00000-0  32295-4 0  9999,2 53786  53.2171  63.7610 0001375  86.1673 273.9476 15.08840000 90801,6917.88,95.438,540.697,538.794,0.0
53786.0,STARLINK-4631,PAYLOAD,2024-05-01 20:42:48,15.08837809,0.0001428,53.2178,62.2761,88.9418,271.1738,1.3946e-05,-6.6e-07,0.0,0 STARLINK-4631,1 53786U 22111P   24122.86306432 -.00000066  00000-0  13946-4 0  9999,2 53786  53.2178  62.2761 0001428  88.9418 271.1738 15.08837809 91664,6917.887,95.438,540.74,538.764,0.0
53786.0,STARLINK-4631,PAYLOAD,2024-05-02 12:36:40,15.08836867,0.0001428,53.2179,59.3025,88.9766,271.139,-1.069e-05,-4.58e-06,0.0,0 STARLINK-4631,1 53786U 22111P   24123.52546604 -.00000458  00000-0 -10690-4 0  9999,2 53786  53.2179  59.3025 0001428  88.9766 271.1390 15.08836867 91769,6917.89,95.438,540.743,538.767,0.0
53786.0,STARLINK-4631,PAYLOAD,2024-05-02 18:58:12,15.08836037,0.000147,53.218,58.1136,95.2854,264.8305,-2.4039e-05,-6.7e-06,0.0,0 STARLINK-4631,1 53786U 22111P   24123.79042733 -.00000670  00000-0 -24039-4 0  9990,2 53786  53.2180  58.1136 0001470  95.2854 264.8305 15.08836037 90995,6917.893,95.438,540.774,538.741,0.0
53786.0,STARLINK-4631,PAYLOAD,2024-05-03 12:27:27,15.08838206,0.0001491,53.2183,54.8423,89.0534,271.0629,-3.0718e-05,-7.77e-06,0.0,0 STARLINK-4631,1 53786U 22111P   24124.51906790 -.00000777  00000-0 -30718-4 0  9992,2 53786  53.2183  54.8423 0001491  89.0534 271.0629 15.08838206 91911,6917.886,95.438,540.782,538.719,0.0
53786.0,STARLINK-4631,PAYLOAD,2024-05-03 18:48:59,15.08837032,0.0001439,53.2179,53.6521,91.3613,268.7544,1.613e-05,-3.1e-07,0.0,0 STARLINK-4631,1 53786U 22111P   24124.78402718 -.00000031  00000-0  16130-4 0  9996,2 53786  53.2179  53.6521 0001439  91.3613 268.7544 15.08837032 91957,6917.889,95.438,540.75,538.759,0.0
53786.0,STARLINK-4631,PAYLOAD,2024-05-04 04:21:18,15.08839119,0.0001405,53.2177,51.8678,91.2448,268.8705,1.8595e-05,8e-08,0.0,0 STARLINK-4631,1 53786U 22111P   24125.18146631  .00000008  00000-0  18595-4 0  9990,2 53786  53.2177  51.8678 0001405  91.2448 268.8705 15.08839119 91202,6917.883,95.438,540.72,538.776,0.0
53786.0,STARLINK-4631,PAYLOAD,2024-05-05 02:36:43,15.08834204,0.0001431,53.2178,47.7046,88.3032,271.8124,9.774e-06,-1.32e-06,0.0,0 STARLINK-4631,1 53786U 22111P   24126.10883305 -.00000132  00000-0  97740-5 0  9998,2 53786  53.2178  47.7046 0001431  88.3032 271.8124 15.08834204 91345,6917.898,95.438,540.753,538.773,0.0
53786.0,STARLINK-4631,PAYLOAD,2024-05-06 00:52:06,15.08841044,0.0001433,53.2177,43.5415,88.33,271.7856,4.0159e-05,3.51e-06,0.0,0 STARLINK-4631,1 53786U 22111P   24127.03618865  .00000351  00000-0  40159-4 0  9991,2 53786  53.2177  43.5415 0001433  88.3300 271.7856 15.08841044 91484,6917.877,95.437,540.734,538.751,0.0
53786.0,STARLINK-4631,PAYLOAD,2024-05-06 11:59:48,15.08842578,0.0001425,53.2179,41.4602,87.7133,272.4022,6.8541e-05,8.03e-06,0.0,0 STARLINK-4631,1 53786U 22111P   24127.49986623  .00000803  00000-0  68541-4 0  9998,2 53786  53.2179  41.4602 0001425  87.7133 272.4022 15.08842578 92363,6917.873,95.437,540.723,538.752,0.0
53786.0,STARLINK-4631,PAYLOAD,2024-05-06 21:32:07,15.08840829,0.0001428,53.2179,39.676,87.9982,272.1174,6.9242e-05,8.14e-06,0.0,0 STARLINK-4631,1 53786U 22111P   24127.89730658  .00000814  00000-0  69242-4 0  9998,2 53786  53.2179  39.6760 0001428  87.9982 272.1174 15.08840829 92423,6917.878,95.438,540.731,538.755,0.0
53786.0,STARLINK-4631,PAYLOAD,2024-05-07 03:53:39,15.08844745,0.0001455,53.2178,38.4865,88.523,271.5929,7.1988e-05,8.58e-06,0.0,0 STARLINK-4631,1 53786U 22111P   24128.16226373  .00000858  00000-0  71988-4 0  9991,2 53786  53.2178  38.4865 0001455  88.5230 271.5929 15.08844745 91654,6917.866,95.437,540.737,538.724,0.0
53786.0,STARLINK-4631,PAYLOAD,2024-05-07 21:22:54,15.08836988,0.0001514,53.2178,35.2134,94.3185,265.798,-4.5636e-05,-1.014e-05,0.0,0 STARLINK-4631,1 53786U 22111P   24128.89091218 -.00001014  00000-0 -45636-4 0  9997,2 53786  53.2178  35.2134 0001514  94.3185 265.7980 15.08836988 91762,6917.89,95.438,540.802,538.707,0.0
53786.0,STARLINK-4631,PAYLOAD,2024-05-08 10:05:59,15.08837075,0.0001493,53.2183,32.8347,94.2474,265.8689,-3.884e-05,-9.06e-06,0.0,0 STARLINK-4631,1 53786U 22111P   24129.42083254 -.00000906  00000-0 -38840-4 0  9996,2 53786  53.2183  32.8347 0001493  94.2474 265.8689 15.08837075 92657,6917.889,95.438,540.787,538.721,0.0
53786.0,STARLINK-4631,PAYLOAD,2024-05-08 22:49:05,15.08837406,0.0001504,53.2185,30.4555,98.4952,261.6211,-4.7242e-05,-1.04e-05,0.0,0 STARLINK-4631,1 53786U 22111P   24129.95075295 -.00001040  00000-0 -47242-4 0  9996,2 53786  53.2185  30.4555 0001504  98.4952 261.6211 15.08837406 92736,6917.888,95.438,540.794,538.713,0.0
53786.0,STARLINK-4631,PAYLOAD,2024-05-09 00:24:28,15.08839373,0.0001459,53.2184,30.1599,93.1106,267.0053,-2.6202e-05,-7.05e-06,0.0,0 STARLINK-4631,1 53786U 22111P   24130.01699138 -.00000705  00000-0 -26202-4 0  9993,2 53786  53.2184  30.1599 0001459  93.1106 267.0053 15.08839373 91932,6917.882,95.438,540.757,538.738,0.0
53786.0,STARLINK-4631,PAYLOAD,2024-05-09 09:56:46,15.08841508,0.0001417,53.2184,28.3774,101.8517,258.2635,-5.2955e-05,-1.131e-05,0.0,0 STARLINK-4631,1 53786U 22111P   24130.41443122 -.00001131  00000-0 -52955-4 0  9995,2 53786  53.2184  28.3774 0001417 101.8517 258.2635 15.08841508 92801,6917.876,95.437,540.721,538.761,0.0
53786.0,STARLINK-4631,PAYLOAD,2024-05-09 22:39:52,15.08835565,0.0001401,53.2185,25.9986,100.7689,259.3461,4.7815e-05,4.73e-06,0.0,0 STARLINK-4631,1 53786U 22111P   24130.94435353  .00000473  00000-0  47815-4 0  9995,2 53786  53.2185  25.9986 0001401 100.7689 259.3461 15.08835565 92884,6917.894,95.438,540.728,538.79,0.0
53786.0,STARLINK-4631,PAYLOAD,2024-05-10 01:50:38,15.08836918,0.0001413,53.2187,25.404,100.5195,259.5956,5.8298e-05,6.4e-06,0.0,0 STARLINK-4631,1 53786U 22111P   24131.07683268  .00000640  00000-0  58298-4 0  9993,2 53786  53.2187  25.4040 0001413 100.5195 259.5956 15.08836918 92092,6917.89,95.438,540.732,538.777,0.0
